NORAD_CAT_ID,OBJECT_NAME,OBJECT_TYPE,EPOCH,MEAN_MOTION,ECCENTRICITY,INCLINATION,RA_OF_ASC_NODE,ARG_OF_PERICENTER,MEAN_ANOMALY,BSTAR,MEAN_MOTION_DOT,MEAN_MOTION_DDOT,TLE_LINE0,TLE_LINE1,TLE_LINE2,SEMIMAJOR_AXIS,PERIOD,APOGEE,PERIGEE,DECAYED
55781.0,STARLINK-5820,PAYLOAD,2024-02-25 09:56:16,14.98336189,0.0002785,69.9985,298.7057,268.2396,91.8444,-9.5549e-06,-2.07e-06,0.0,0 STARLINK-5820,1 55781U 23028AS  24056.41407451 -.00000207  00000-0 -95549-5 0  9992,2 55781  69.9985 298.7057 0002785 268.2396  91.8444 14.98336189 55192,6950.174,96.107,573.974,570.103,0.0
55781.0,STARLINK-5820,PAYLOAD,2024-02-25 14:44:40,14.98330346,0.0002732,69.9984,298.2007,268.7707,91.3139,0.00010094,1.112e-05,0.0,0 STARLINK-5820,1 55781U 23028AS  24056.61435501  .00001112  00000-0  10094-3 0  9995,2 55781  69.9984 298.2007 0002732 268.7707  91.3139 14.98330346 55223,6950.192,96.107,573.956,570.158,0.0
55781.0,STARLINK-5820,PAYLOAD,2024-02-25 22:45:20,14.98334442,0.0002765,69.9985,297.3593,269.2884,90.7958,8.9537e-05,9.76e-06,0.0,0 STARLINK-5820,1 55781U 23028AS  24056.94815245  .00000976  00000-0  89537-4 0  9994,2 55781  69.9985 297.3593 0002765 269.2884  90.7958 14.98334442 55270,6950.179,96.107,573.966,570.122,0.0
55781.0,STARLINK-5820,PAYLOAD,2024-02-26 01:57:36,14.98336296,0.0002743,69.9986,297.0226,269.2033,90.8812,0.00010691,1.183e-05,0.0,0 STARLINK-5820,1 55781U 23028AS  24057.08167037  .00001183  00000-0  10691-3 0  9994,2 55781  69.9986 297.0226 0002743 269.2033  90.8812 14.98336296 55294,6950.173,96.107,573.945,570.132,0.0
55781.0,STARLINK-5820,PAYLOAD,2024-02-26 19:35:05,14.98324558,0.0002601,69.9995,295.1725,268.0686,92.0175,1.0649e-05,3.4e-07,0.0,0 STARLINK-5820,1 55781U 23028AS  24057.81604046  .00000034  00000-0  10649-4 0  9999,2 55781  69.9995 295.1725 0002601 268.0686  92.0175 14.98324558 55408,6950.21,96.107,573.882,570.267,0.0
55781.0,STARLINK-5820,PAYLOAD,2024-02-26 22:47:22,14.98325601,0.0002551,69.999,294.8341,270.7149,89.3718,-5.9178e-05,-7.99e-06,0.0,0 STARLINK-5820,1 55781U 23028AS  24057.94956193 -.00000799  00000-0 -59178-4 0  9996,2 55781  69.9990 294.8341 0002551 270.7149  89.3718 14.98325601 55425,6950.206,96.107,573.844,570.298,0.0
55781.0,STARLINK-5820,PAYLOAD,2024-02-27 08:24:10,14.98329737,0.0002561,69.9988,293.8242,270.866,89.2206,-7.4286e-05,-9.79e-06,0.0,0 STARLINK-5820,1 55781U 23028AS  24058.35012088 -.00000979  00000-0 -74286-4 0  9995,2 55781  69.9988 293.8242 0002561 270.8660  89.2206 14.98329737 55482,6950.194,96.107,573.839,570.279,0.0
55781.0,STARLINK-5820,PAYLOAD,2024-02-27 19:37:06,14.98332819,0.0002628,69.9983,292.6458,270.3567,89.7291,-2.247e-05,-3.61e-06,0.0,0 STARLINK-5820,1 55781U 23028AS  24058.81743660 -.00000361  00000-0 -22470-4 0  9996,2 55781  69.9983 292.6458 0002628 270.3567  89.7291 14.98332819 55550,6950.184,96.107,573.876,570.223,0.0
55781.0,STARLINK-5820,PAYLOAD,2024-02-27 22:49:22,14.983332,0.0002852,69.9976,292.3089,272.8285,87.2548,-1.6284e-05,-2.87e-06,0.0,0 STARLINK-5820,1 55781U 23028AS  24058.95095598 -.00000287  00000-0 -16284-4 0  9994,2 55781  69.9976 292.3089 0002852 272.8285  87.2548 14.98333200 55577,6950.183,96.107,574.03,570.066,0.0
55781.0,STARLINK-5820,PAYLOAD,2024-02-28 08:26:10,14.98348685,0.0002914,69.9979,291.299,274.2198,85.8628,-0.0003018,-3.694e-05,0.0,0 STARLINK-5820,1 55781U 23028AS  24059.35151108 -.00003694  00000-0 -30180-3 0  9994,2 55781  69.9979 291.2990 0002914 274.2198  85.8628 14.98348685 55630,6950.135,96.106,574.025,569.975,0.0
55781.0,STARLINK-5820,PAYLOAD,2024-02-28 19:39:07,14.98325024,0.0002722,69.9977,290.1205,271.5163,88.5684,4.8877e-05,4.9e-06,0.0,0 STARLINK-5820,1 55781U 23028AS  24059.81883875  .00000490  00000-0  48877-4 0  9990,2 55781  69.9977 290.1205 0002722 271.5163  88.5684 14.98325024 55706,6950.208,96.107,573.965,570.181,0.0
55781.0,STARLINK-5820,PAYLOAD,2024-02-28 22:51:23,14.98324989,0.0002725,69.9977,289.7839,271.5052,88.5794,4.5754e-05,4.53e-06,0.0,0 STARLINK-5820,1 55781U 23028AS  24059.95235922  .00000453  00000-0  45754-4 0  9999,2 55781  69.9977 289.7839 0002725 271.5052  88.5794 14.98324989 55726,6950.208,96.107,573.967,570.179,0.0
55781.0,STARLINK-5820,PAYLOAD,2024-02-29 08:28:12,14.98327659,0.0002703,69.9978,288.7736,271.4358,88.6492,3.9085e-05,3.73e-06,0.0,0 STARLINK-5820,1 55781U 23028AS  24060.35291830  .00000373  00000-0  39085-4 0  9996,2 55781  69.9978 288.7736 0002703 271.4358  88.6492 14.98327659 55785,6950.2,96.107,573.944,570.186,0.0
55781.0,STARLINK-5820,PAYLOAD,2024-02-29 19:41:08,14.98328698,0.000271,69.9978,287.5955,270.7534,89.3315,-1.0042e-06,-1.05e-06,0.0,0 STARLINK-5820,1 55781U 23028AS  24060.82023866 -.00000105  00000-0 -10042-5 0  9998,2 55781  69.9978 287.5955 0002710 270.7534  89.3315 14.98328698 55855,6950.197,96.107,573.945,570.178,0.0
55781.0,STARLINK-5820,PAYLOAD,2024-02-29 21:17:16,14.98329901,0.0002732,69.9978,287.4271,270.6785,89.4061,-1.6484e-05,-2.9e-06,0.0,0 STARLINK-5820,1 55781U 23028AS  24060.88699831 -.00000290  00000-0 -16484-4 0  9995,2 55781  69.9978 287.4271 0002732 270.6785  89.4061 14.98329901 55864,6950.193,96.107,573.957,570.159,0.0
55781.0,STARLINK-5820,PAYLOAD,2024-03-01 14:54:45,14.9833014,0.0002763,69.998,285.5758,270.2242,89.86,2.6998e-05,2.29e-06,0.0,0 STARLINK-5820,1 55781U 23028AS  24061.62135643  .00000229  00000-0  26998-4 0  9995,2 55781  69.9980 285.5758 0002763 270.2242  89.8600 14.98330140 55976,6950.192,96.107,573.978,570.137,0.0
55781.0,STARLINK-5820,PAYLOAD,2024-03-01 19:43:09,14.98330209,0.0002782,69.998,285.0707,270.0847,89.9994,2.846e-05,2.47e-06,0.0,0 STARLINK-5820,1 55781U 23028AS  24061.82163617  .00000247  00000-0  28460-4 0  9995,2 55781  69.9980 285.0707 0002782 270.0847  89.9994 14.98330209 56003,6950.192,96.107,573.991,570.124,0.0
55781.0,STARLINK-5820,PAYLOAD,2024-03-01 21:19:17,14.98331534,0.000278,69.9979,284.9023,270.02,90.064,3.142e-05,2.82e-06,0.0,0 STARLINK-5820,1 55781U 23028AS  24061.88839519  .00000282  00000-0  31420-4 0  9991,2 55781  69.9979 284.9023 0002780 270.0200  90.0640 14.98331534 56015,6950.188,96.107,573.985,570.121,0.0
55781.0,STARLINK-5820,PAYLOAD,2024-03-02 00:31:33,14.98332139,0.0002774,69.9979,284.5657,270.099,89.9851,3.7342e-05,3.53e-06,0.0,0 STARLINK-5820,1 55781U 23028AS  24062.02191445  .00000353  00000-0  37342-4 0  9995,2 55781  69.9979 284.5657 0002774 270.0990  89.9851 14.98332139 56038,6950.186,96.107,573.979,570.123,0.0
55781.0,STARLINK-5820,PAYLOAD,2024-03-02 19:45:10,14.98328944,0.0002759,69.9979,282.5457,270.4937,89.5906,2.3033e-06,-6.6e-07,0.0,0 STARLINK-5820,1 55781U 23028AS  24062.82303714 -.00000066  00000-0  23033-5 0  9992,2 55781  69.9979 282.5457 0002759 270.4937  89.5906 14.98328944 56151,6950.196,96.107,573.979,570.144,0.0
55781.0,STARLINK-5820,PAYLOAD,2024-03-02 21:21:18,14.98328333,0.0002744,69.9979,282.377,269.7174,90.367,2.78e-06,-6e-07,0.0,0 STARLINK-5820,1 55781U 23028AS  24062.88979749 -.00000060  00000-0  27800-5 0  9995,2 55781  69.9979 282.3770 0002744 269.7174  90.3670 14.98328333 56166,6950.198,96.107,573.97,570.156,0.0
55781.0,STARLINK-5820,PAYLOAD,2024-03-03 14:58:46,14.98332595,0.0002745,69.9977,280.5246,269.085,90.9994,2.7233e-06,-6e-07,0.0,0 STARLINK-5820,1 55781U 23028AS  24063.62415453 -.00000060  00000-0  27233-5 0  9995,2 55781  69.9977 280.5246 0002745 269.0850  90.9994 14.98332595 56279,6950.185,96.107,573.958,570.142,0.0
55781.0,STARLINK-5820,PAYLOAD,2024-03-03 21:23:19,14.98333781,0.0002756,69.9976,279.8507,272.1322,87.9521,2.2293e-05,1.73e-06,0.0,0 STARLINK-5820,1 55781U 23028AS  24063.89119316  .00000173  00000-0  22293-4 0  9997,2 55781  69.9976 279.8507 0002756 272.1322  87.9521 14.98333781 56315,6950.181,96.107,573.962,570.131,0.0
55781.0,STARLINK-5820,PAYLOAD,2024-03-04 00:35:35,14.98335614,0.0002742,69.9977,279.5144,272.2762,87.8083,4.0878e-05,3.95e-06,0.0,0 STARLINK-5820,1 55781U 23028AS  24064.02471098  .00000395  00000-0  40878-4 0  9996,2 55781  69.9977 279.5144 0002742 272.2762  87.8083 14.98335614 56335,6950.176,96.107,573.946,570.135,0.0
55781.0,STARLINK-5820,PAYLOAD,2024-03-04 15:00:47,14.98334879,0.0002801,69.9974,277.9994,274.4861,85.5978,7.0912e-05,7.53e-06,0.0,0 STARLINK-5820,1 55781U 23028AS  24064.62554845  .00000753  00000-0  70912-4 0  9994,2 55781  69.9974 277.9994 0002801 274.4861  85.5978 14.98334879 56427,6950.178,96.107,573.99,570.096,0.0
55781.0,STARLINK-5820,PAYLOAD,2024-03-04 23:01:27,14.98335265,0.000282,69.9975,277.1576,274.4205,85.6631,6.5781e-05,6.92e-06,0.0,0 STARLINK-5820,1 55781U 23028AS  24064.95934714  .00000692  00000-0  65781-4 0  9997,2 55781  69.9975 277.1576 0002820 274.4205  85.6631 14.98335265 56471,6950.177,96.107,574.002,570.082,0.0
55781.0,STARLINK-5820,PAYLOAD,2024-03-05 00:37:35,14.9833653,0.0002822,69.9975,276.9892,274.3907,85.693,7.7574e-05,8.33e-06,0.0,0 STARLINK-5820,1 55781U 23028AS  24065.02610574  .00000833  00000-0  77574-4 0  9991,2 55781  69.9975 276.9892 0002822 274.3907  85.6930 14.98336530 56488,6950.173,96.107,573.999,570.076,0.0
55781.0,STARLINK-5820,PAYLOAD,2024-03-05 19:51:13,14.98327285,0.0002605,69.9979,274.9682,268.6372,91.4488,-0.00014712,-1.848e-05,0.0,0 STARLINK-5820,1 55781U 23028AS  24065.82723772 -.00001848  00000-0 -14712-3 0  9997,2 55781  69.9979 274.9682 0002605 268.6372  91.4488 14.98327285 56602,6950.201,96.107,573.877,570.256,0.0
55781.0,STARLINK-5820,PAYLOAD,2024-03-06 13:28:41,14.98327977,0.0002934,69.9977,273.1179,269.0253,91.057,-7.1802e-05,-9.5e-06,0.0,0 STARLINK-5820,1 55781U 23028AS  24066.56159650 -.00000950  00000-0 -71802-4 0  9994,2 55781  69.9977 273.1179 0002934 269.0253  91.0570 14.98327977 56718,6950.199,96.107,574.103,570.025,0.0
55781.0,STARLINK-5820,PAYLOAD,2024-03-06 19:53:14,14.9832987,0.000276,69.9979,272.4445,257.0186,103.0665,-6.7496e-05,-8.98e-06,0.0,0 STARLINK-5820,1 55781U 23028AS  24066.82863469 -.00000898  00000-0 -67496-4 0  9998,2 55781  69.9979 272.4445 0002760 257.0186 103.0665 14.98329870 56754,6950.193,96.107,573.977,570.14,0.0
